NORAD_CAT_ID,OBJECT_NAME,OBJECT_TYPE,EPOCH,MEAN_MOTION,ECCENTRICITY,INCLINATION,RA_OF_ASC_NODE,ARG_OF_PERICENTER,MEAN_ANOMALY,BSTAR,MEAN_MOTION_DOT,MEAN_MOTION_DDOT,TLE_LINE0,TLE_LINE1,TLE_LINE2,SEMIMAJOR_AXIS,PERIOD,APOGEE,PERIGEE,DECAYED
53562.0,STARLINK-4565,PAYLOAD,2023-09-15 23:49:18,15.08854394,0.0001308,53.2175,160.0946,94.8664,265.2478,0.00010602,1.4e-05,0.0,0 STARLINK-4565,1 53562U 22101AM  23258.99257391  .00001400  00000-0  10602-3 0  9999,2 53562  53.2175 160.0946 0001308  94.8664 265.2478 15.08854394 59714,6917.836,95.437,540.606,538.797,0.0
53562.0,STARLINK-4565,PAYLOAD,2023-09-16 03:00:04,15.08858307,0.0001335,53.2176,159.4997,93.3697,266.7448,0.00014829,2.074e-05,0.0,0 STARLINK-4565,1 53562U 22101AM  23259.12505045  .00002074  00000-0  14829-3 0  9990,2 53562  53.2176 159.4997 0001335  93.3697 266.7448 15.08858307 60390,6917.824,95.436,540.613,538.766,0.0
53562.0,STARLINK-4565,PAYLOAD,2023-09-16 23:40:06,15.08836756,0.0001377,53.2179,155.6347,85.2821,274.8329,8.687e-05,1.095e-05,0.0,0 STARLINK-4565,1 53562U 22101AM  23259.98619000  .00001095  00000-0  86870-4 0  9999,2 53562  53.2179 155.6347 0001377  85.2821 274.8329 15.08836756 59867,6917.89,95.438,540.708,538.803,0.0
53562.0,STARLINK-4565,PAYLOAD,2023-09-17 02:50:52,15.08839489,0.0001385,53.2176,155.0395,85.7988,274.3163,0.00011026,1.467e-05,0.0,0 STARLINK-4565,1 53562U 22101AM  23260.11866887  .00001467  00000-0  11026-3 0  9996,2 53562  53.2176 155.0395 0001385  85.7988 274.3163 15.08839489 60543,6917.882,95.438,540.705,538.789,0.0
53562.0,STARLINK-4565,PAYLOAD,2023-09-17 23:30:52,15.08857488,0.0001404,53.2168,151.1731,88.8733,271.242,0.0001919,2.769e-05,0.0,0 STARLINK-4565,1 53562U 22101AM  23260.97977736  .00002769  00000-0  19190-3 0  9992,2 53562  53.2168 151.1731 0001404  88.8733 271.2420 15.08857488 60012,6917.827,95.436,540.663,538.721,0.0
53562.0,STARLINK-4565,PAYLOAD,2023-09-18 02:41:38,15.08857922,0.0001377,53.2168,150.5781,88.8859,271.2291,0.00022901,3.36e-05,0.0,0 STARLINK-4565,1 53562U 22101AM  23261.11225619  .00003360  00000-0  22901-3 0  9997,2 53562  53.2168 150.5781 0001377  88.8859 271.2291 15.08857922 60691,6917.826,95.436,540.643,538.738,0.0
53562.0,STARLINK-4565,PAYLOAD,2023-09-18 20:10:54,15.0884247,0.0001387,53.2165,147.3068,82.9303,277.1847,0.00017047,2.426e-05,0.0,0 STARLINK-4565,1 53562U 22101AM  23261.84090528  .00002426  00000-0  17047-3 0  9993,2 53562  53.2165 147.3068 0001387  82.9303 277.1847 15.08842470 60807,6917.873,95.437,540.697,538.778,0.0
53562.0,STARLINK-4565,PAYLOAD,2023-09-19 02:32:26,15.08860656,0.0001326,53.2161,146.1186,89.8691,270.2453,0.00064158,9.943e-05,0.0,0 STARLINK-4565,1 53562U 22101AM  23262.10585868  .00009943  00000-0  64158-3 0  9995,2 53562  53.2161 146.1186 0001326  89.8691 270.2453 15.08860656 60184,6917.817,95.436,540.6,538.765,0.0
53562.0,STARLINK-4565,PAYLOAD,2023-09-19 15:15:31,15.0884229,0.0002491,53.2156,143.7395,81.8451,278.2824,0.00081054,0.00012636,0.0,0 STARLINK-4565,1 53562U 22101AM  23262.63578643  .00012636  00000-0  81054-3 0  9993,2 53562  53.2156 143.7395 0002491  81.8451 278.2824 15.08842290 60266,6917.873,95.437,541.462,538.015,0.0
53562.0,STARLINK-4565,PAYLOAD,2023-09-20 00:47:51,15.08831961,0.0001316,53.2156,141.9545,96.5721,263.5421,0.00053296,8.202e-05,0.0,0 STARLINK-4565,1 53562U 22101AM  23263.03322985  .00008202  00000-0  53296-3 0  9995,2 53562  53.2156 141.9545 0001316  96.5721 263.5421 15.08831961 60321,6917.905,95.438,540.68,538.86,0.0
53562.0,STARLINK-4565,PAYLOAD,2023-09-20 08:44:46,15.08832287,0.0001266,53.2155,140.4679,86.1,274.0137,0.00027607,4.108e-05,0.0,0 STARLINK-4565,1 53562U 22101AM  23263.36443256  .00004108  00000-0  27607-3 0  9994,2 53562  53.2155 140.4679 0001266  86.1000 274.0137 15.08832287 61033,6917.904,95.438,540.645,538.893,0.0
53562.0,STARLINK-4565,PAYLOAD,2023-09-20 21:27:52,15.08829013,0.0001445,53.216,138.0924,97.6248,262.4908,0.00020342,2.95e-05,0.0,0 STARLINK-4565,1 53562U 22101AM  23263.89435814  .00002950  00000-0  20342-3 0  9995,2 53562  53.2160 138.0924 0001445  97.6248 262.4908 15.08829013 61114,6917.914,95.438,540.779,538.779,0.0
53562.0,STARLINK-4565,PAYLOAD,2023-09-21 02:14:02,15.08833805,0.0001441,53.2156,137.1984,89.1741,270.9416,0.00035645,5.389e-05,0.0,0 STARLINK-4565,1 53562U 22101AM  23264.09307875  .00005389  00000-0  35645-3 0  9994,2 53562  53.2156 137.1984 0001441  89.1741 270.9416 15.08833805 60486,6917.899,95.438,540.761,538.767,0.0
53562.0,STARLINK-4565,PAYLOAD,2023-09-21 19:43:16,15.08843915,0.0001477,53.2166,133.9282,94.1597,265.9564,0.00038168,5.792e-05,0.0,0 STARLINK-4565,1 53562U 22101AM  23264.82171766  .00005792  00000-0  38168-3 0  9994,2 53562  53.2166 133.9282 0001477  94.1597 265.9564 15.08843915 61253,6917.868,95.437,540.755,538.712,0.0
53562.0,STARLINK-4565,PAYLOAD,2023-09-22 00:29:25,15.08851708,0.0001566,53.2168,133.0353,85.0966,275.0205,0.00050816,7.811e-05,0.0,0 STARLINK-4565,1 53562U 22101AM  23265.02043577  .00007811  00000-0  50816-3 0  9993,2 53562  53.2168 133.0353 0001566  85.0966 275.0205 15.08851708 60626,6917.845,95.437,540.793,538.626,0.0
53562.0,STARLINK-4565,PAYLOAD,2023-09-22 21:09:26,15.08851177,0.0001293,53.2154,129.169,84.3918,275.7222,0.00033277,5.014e-05,0.0,0 STARLINK-4565,1 53562U 22101AM  23265.88155372  .00005014  00000-0  33277-3 0  9999,2 53562  53.2154 129.1690 0001293  84.3918 275.7222 15.08851177 61411,6917.846,95.437,540.606,538.817,0.0
53562.0,STARLINK-4565,PAYLOAD,2023-09-22 22:44:49,15.08853416,0.0001288,53.2154,128.8717,86.2861,273.8278,0.00040855,6.222e-05,0.0,0 STARLINK-4565,1 53562U 22101AM  23265.94779290  .00006222  00000-0  40855-3 0  9999,2 53562  53.2154 128.8717 0001288  86.2861 273.8278 15.08853416 60764,6917.839,95.437,540.595,538.813,0.0
53562.0,STARLINK-4565,PAYLOAD,2023-09-23 19:24:50,15.08845968,0.0001231,53.2155,125.0074,98.4554,261.6578,0.00035687,5.397e-05,0.0,0 STARLINK-4565,1 53562U 22101AM  23266.80891292  .00005397  00000-0  35687-3 0  9991,2 53562  53.2155 125.0074 0001231  98.4554 261.6578 15.08845968 60897,6917.862,95.437,540.579,538.876,0.0
53562.0,STARLINK-4565,PAYLOAD,2023-09-24 00:10:59,15.08849295,0.0001324,53.2157,124.1153,86.7054,273.409,0.00053074,8.171e-05,0.0,0 STARLINK-4565,1 53562U 22101AM  23267.00763309  .00008171  00000-0  53074-3 0  9994,2 53562  53.2157 124.1153 0001324  86.7054 273.4090 15.08849295 61589,6917.852,95.437,540.633,538.801,0.0
53562.0,STARLINK-4565,PAYLOAD,2023-09-24 19:15:37,15.08845097,0.0001368,53.216,120.544,99.7656,260.3491,0.00034945,5.279e-05,0.0,0 STARLINK-4565,1 53562U 22101AM  23267.80251506  .00005279  00000-0  34945-3 0  9995,2 53562  53.2160 120.5440 0001368  99.7656 260.3491 15.08845097 61049,6917.865,95.437,540.676,538.783,0.0
53562.0,STARLINK-4565,PAYLOAD,2023-09-24 20:51:00,15.08845023,0.0001313,53.2161,120.2476,88.0676,272.0466,0.000343,5.176e-05,0.0,0 STARLINK-4565,1 53562U 22101AM  23267.86875568  .00005176  00000-0  34300-3 0  9992,2 53562  53.2161 120.2476 0001313  88.0676 272.0466 15.08845023 61714,6917.865,95.437,540.638,538.822,0.0
53562.0,STARLINK-4565,PAYLOAD,2023-09-25 00:01:46,15.08844958,0.0001301,53.2161,119.6527,92.9015,267.2126,0.00041124,6.264e-05,0.0,0 STARLINK-4565,1 53562U 22101AM  23268.00123529  .00006264  00000-0  41124-3 0  9993,2 53562  53.2161 119.6527 0001301  92.9015 267.2126 15.08844958 61738,6917.865,95.437,540.63,538.83,0.0
53562.0,STARLINK-4565,PAYLOAD,2023-09-25 20:41:47,15.0885273,0.0001431,53.2166,115.7867,86.1744,273.9412,0.00030404,4.556e-05,0.0,0 STARLINK-4565,1 53562U 22101AM  23268.86235056  .00004556  00000-0  30404-3 0  9997,2 53562  53.2166 115.7867 0001431  86.1744 273.9412 15.08852730 61868,6917.841,95.437,540.696,538.717,0.0
53562.0,STARLINK-4565,PAYLOAD,2023-09-26 17:21:48,15.08836584,0.0001393,53.2162,111.9207,88.6971,271.418,2.0794e-05,4.3e-07,0.0,0 STARLINK-4565,1 53562U 22101AM  23269.72347837  .00000043  00000-0  20794-4 0  9993,2 53562  53.2162 111.9207 0001393  88.6971 271.4180 15.08836584 61332,6917.891,95.438,540.719,538.792,0.0
53562.0,STARLINK-4565,PAYLOAD,2023-09-26 20:32:34,15.08837232,0.0001499,53.2163,111.3251,94.7401,265.3762,4.6552e-05,4.53e-06,0.0,0 STARLINK-4565,1 53562U 22101AM  23269.85595841  .00000453  00000-0  46552-4 0  9992,2 53562  53.2163 111.3251 0001499  94.7401 265.3762 15.08837232 62014,6917.889,95.438,540.791,538.717,0.0
53562.0,STARLINK-4565,PAYLOAD,2023-09-27 06:04:53,15.08836041,0.0001495,53.2161,109.5414,87.7804,272.3359,4.2378e-05,3.86e-06,0.0,0 STARLINK-4565,1 53562U 22101AM  23270.25340064  .00000386  00000-0  42378-4 0  9990,2 53562  53.2161 109.5414 0001495  87.7804 272.3359 15.08836041 62070,6917.892,95.438,540.792,538.723,0.0
53562.0,STARLINK-4565,PAYLOAD,2023-09-27 18:47:59,15.08833735,0.0001507,53.2161,107.1653,97.2556,262.8607,7.517e-06,-1.68e-06,0.0,0 STARLINK-4565,1 53562U 22101AM  23270.78332398 -.00000168  00000-0  75170-5 0  9995,2 53562  53.2161 107.1653 0001507  97.2556 262.8607 15.08833735 61495,6917.9,95.438,540.807,538.722,0.0
53562.0,STARLINK-4565,PAYLOAD,2023-09-28 12:17:13,15.08839364,0.0001615,53.2163,103.8941,100.3289,259.7885,0.00022623,3.314e-05,0.0,0 STARLINK-4565,1 53562U 22101AM  23271.51196468  .00003314  00000-0  22623-3 0  9991,2 53562  53.2163 103.8941 0001615 100.3289 259.7885 15.08839364 62262,6917.882,95.438,540.865,538.63,0.0
53562.0,STARLINK-4565,PAYLOAD,2023-09-28 20:14:09,15.08845739,0.0001496,53.2155,102.4066,92.808,267.3083,0.00029023,4.335e-05,0.0,0 STARLINK-4565,1 53562U 22101AM  23271.84316248  .00004335  00000-0  29023-3 0  9992,2 53562  53.2155 102.4066 0001496  92.8080 267.3083 15.08845739 62311,6917.863,95.437,540.763,538.693,0.0
53562.0,STARLINK-4565,PAYLOAD,2023-09-29 20:04:56,15.08849642,0.0001394,53.2153,97.947,79.7274,280.3875,0.00021389,3.119e-05,0.0,0 STARLINK-4565,1 53562U 22101AM  23272.83676004  .00003119  00000-0  21389-3 0  9997,2 53562  53.2153  97.9470 0001394  79.7274 280.3875 15.08849642 61806,6917.851,95.437,540.68,538.752,0.0
